GLOBALSTAR M094         
1 39074U 13005C   25183.85513037 -.00000096  00000+0  44930-4 0  9992
2 39074  51.9944 134.4108 0000473 358.8049   1.2817 12.62262836574372
GLOBALSTAR M096         
1 39075U 13005D   25183.70990726 -.00000102  00000+0  87665-5 0  9992
2 39075  52.0043 183.3803 0000263 290.7504  69.3334 12.62265577573257
GLOBALSTAR M078         
1 39076U 13005E   25184.47537220  .00000003  00000+0  59430-3 0  9990
2 39076  51.9873 265.5408 0000983 187.5914 172.4938 12.62259195572184
GLOBALSTAR M095         
1 39077U 13005F   25184.18486128 -.00000099  00000+0  25711-4 0  9991
2 39077  51.9802 263.6126 0000519 195.7429 164.3421 12.62267815572152
GLOBALSTAR M087         
1 52888U 22064A   25183.81968019 -.00000103  00000+0  34072-5 0  9991
2 52888  52.0007  46.2073 0000667  72.7949 287.2990 12.62263643147011
